Satellite Name,TLE Line 1,TLE Line 2
STAR VIBE,1 55009U 23001A   25293.95657961  .00019843  00000+0  58861-3 0  9999,2 55009  97.3543 353.2650 0005334 250.6825 109.3842 15.34843308155433
MENUT,1 55010U 23001B   25293.91988499  .00042573  00000+0  12187-2 0  9996,2 55010  97.3611 353.6195 0004440 246.0231 114.0548 15.35808231155406
BRO-8,1 55011U 23001C   25293.95742350  .00031594  00000+0  94197-3 0  9998,2 55011  97.3607 352.7626 0006434 263.4600  96.5910 15.34581682155346
CONNECTA T1.2,1 55012U 23001D   25293.86716783  .00019212  00000+0  50937-3 0  9997,2 55012  97.3637 357.3134 0006435 234.0677 125.9971 15.38349924155624
BIRKELAND,1 55015U 23001G   25293.91739870  .00012902  00000+0  38572-3 0  9998,2 55015  97.3680 356.7222 0006322 236.9482 123.1154 15.34685987155582
OBJECT H,1 55016U 23001H   25293.93980714  .00018350  00000+0  55254-3 0  9995,2 55016  97.3531 353.2578 0006208 245.0649 114.9949 15.34382149155442
KSF3-B,1 55019U 23001L   25293.97217808  .00160566  00000+0  14765-2 0  9997,2 55019  97.3574   8.9752 0004002 151.6509 208.4970 15.67166901156432
LYNK TOWER 4,1 55034U 23001AB  25293.88166498  .00012293  00000+0  44098-3 0  9998,2 55034  97.3581 350.3023 0007563 246.4789 113.5656 15.28818382155205
UMBRA-05,1 55036U 23001AD  25293.71591696  .00320517  00000+0  30485-2 0  9999,2 55036  97.3497 353.5025 0002071 189.9809 170.1410 15.65832497155406
SKYKRAFT-1,1 55041U 23001AJ  25293.96640073  .00038681  00000+0  79542-3 0  9992,2 55041  97.3561 359.8138 0006258 211.4270 148.6606 15.45853562155852
NUSAT-34 (AMELIA EARHA*),1 55045U 23001AN  25293.96012059  .00017477  00000+0  70782-3 0  9990,2 55045  97.3684 355.4690 0007598 203.4171 156.6722 15.24709112155739
LYNK TOWER 3,1 55046U 23001AP  25293.71272528  .00017910  00000+0  62096-3 0  9994,2 55046  97.3582 350.7254 0007697 250.1020 109.9392 15.29846250155210
NUSAT-33 (ALBANIA-2),1 55047U 23001AQ  25293.95996245  .00017289  00000+0  67498-3 0  9990,2 55047  97.3396 354.4014 0008518 169.6755 190.4661 15.25931196155800
NUSAT-35 (WILLIAMINA),1 55048U 23001AR  25293.95217108  .00019313  00000+0  66786-3 0  9994,2 55048  97.2248 348.1340 0004865 227.0857 132.9976 15.29929028155772
ICEYE-X21,1 55049U 23001AS  25294.00100485  .00068226  00000+0  11582-2 0  9991,2 55049  97.3612   2.3893 0014376 208.6459 151.4005 15.51136224156001
ION SCV-008,1 55051U 23001AU  25293.81974392  .00011759  00000+0  47831-3 0  9994,2 55051  97.5806  21.7613 0017329 132.4772 227.7933 15.24547952154817
EOSSAT-1,1 55053U 23001AW  25293.73852722  .00012387  00000+0  43475-3 0  9997,2 55053  97.3601 351.5444 0008449 246.5580 113.4773 15.29526095155266
SKYKRAFT-1A,1 55054U 23001AX  25293.87703748  .00008023  00000+0  31372-3 0  9991,2 55054  97.3596 349.9498 0008815 255.8334 104.1926 15.26078468155188
VIGORIDE-5,1 55056U 23001AZ  25293.72303586  .00041914  00000+0  96747-3 0  9996,2 55056  97.3573 355.3526 0003361 224.7592 135.3385 15.42423175155531
SKYKRAFT-1B,1 55058U 23001BB  25293.74217428  .00196093  00000+0  12828-2 0  9995,2 55058  97.3480   8.0237 0004786 200.4671 159.6403 15.75230204156381
ION SCV-007,1 55060U 23001BD  25293.91807037  .00001048  00000+0  15501-3 0  9995,2 55060  97.9355 356.2857 0013126  34.3625 325.8432 14.77217382150924
SKYKRAFT-1C,1 55061U 23001BE  25293.89157787  .00006381  00000+0  27440-3 0  9993,2 55061  97.3576 347.6420 0009298 269.7867  90.2304 15.22950369155039
ICEYE-X27,1 55062U 23001BF  25293.72137977  .00351765  00000+0  16216-2 0  9992,2 55062  97.3487   6.1696 0003984 225.1205 134.9741 15.82645356156238
NUSAT-32 (ALBANIA-1),1 55064U 23001BH  25293.92268260  .00104420  00000+0  11596-2 0  9996,2 55064  97.2136 356.7359 0005172 160.8451 199.3003 15.62561317156787
YAM-5,1 55076U 23001BV  25293.69799747  .00016655  00000+0  53425-3 0  9992,2 55076  97.3570 352.6864 0008718 244.3947 115.6394 15.32367125155350
OBJECT CA,1 55081U 23001CA  25294.30642084  .00161748  00000+0  12098-2 0  9992,2 55081  97.3496   8.9819 0005035 189.7921 170.3245 15.72183874156475
GAMA-ALPHA,1 55084U 23001CD  25293.94214139  .00114519  00000+0  11028-2 0  9996,2 55084  97.3566   6.8737 0005752 190.3933 169.7209 15.66151816156329
KSF3-A,1 55086U 23001CF  25293.96956968  .00246711  00000+0  21078-2 0  9999,2 55086  97.3578   9.1041 0000718 187.8725 172.2525 15.68726958156445
HUYGENS,1 55093U 23001CN  25293.91747098  .00015529  00000+0  46310-3 0  9992,2 55093  97.3598 356.2384 0009952 216.0532 144.0041 15.34692840155603
KUWAITSAT-1,1 55103U 23001CY  25293.69716113  .00025636  00000+0  67619-3 0  9998,2 55103  97.3601 357.2388 0009694 217.3846 142.6726 15.38423112155635
SHARJAHSAT-1,1 55104U 23001CZ  25293.93520660  .00026782  00000+0  70024-3 0  9993,2 55104  97.3553 355.6321 0005976 243.3904 116.6729 15.38715138155573
AAC-AIS-SAT1,1 55107U 23001DC  25293.95156894  .00009948  00000+0  10619-2 0  9990,2 55107  97.9463   4.6797 0009439 355.3912   4.7216 14.88989831142640
ASTROCAST-0402,1 55109U 23001DE  25293.85930118  .00013357  00000+0  56360-3 0  9993,2 55109  97.5702  19.2754 0005357  20.5507 339.5944 15.23405322108035
ASTROCAST-0401,1 55110U 23001DF  25293.80865599  .00010950  00000+0  46195-3 0  9991,2 55110  97.5693  19.2271 0008084 336.7015  23.3854 15.23446526154700
ASTROCAST-0403,1 55111U 23001DG  25293.82499768  .00014394  00000+0  60099-3 0  9990,2 55111  97.5753  19.5881 0007139 102.0547 258.1490 15.23733086108020
ASTROCAST-0404,1 55112U 23001DH  25293.77890807  .00013805  00000+0  58162-3 0  9998,2 55112  97.5785  19.9369 0008669 116.1398 244.0732 15.23428013108024
